[{"OBJECT_NAME":"STARLINK-3102","OBJECT_ID":"2021-082X","EPOCH":"2026-03-09T21:49:47.286048","MEAN_MOTION":14.98352504,"ECCENTRICITY":0.00023032,"INCLINATION":69.999,"RA_OF_ASC_NODE":253.892,"ARG_OF_PERICENTER":271.2853,"MEAN_ANOMALY":88.8042,"EPHEMERIS_TYPE":0,"CLASSIFICATION_TYPE":"U","NORAD_CAT_ID":49151,"ELEMENT_SET_NO":999,"REV_AT_EPOCH":24819,"BSTAR":0.00023527245,"MEAN_MOTION_DOT":2.717e-5,"MEAN_MOTION_DDOT":0},{"OBJECT_NAME":"IKONOS 2","OBJECT_ID":"1999-051A","EPOCH":"2026-03-09T15:19:40.153152","MEAN_MOTION":14.96976552,"ECCENTRICITY":0.0006412,"INCLINATION":98.1486,"RA_OF_ASC_NODE":313.4587,"ARG_OF_PERICENTER":157.8343,"MEAN_ANOMALY":202.3156,"EPHEMERIS_TYPE":0,"CLASSIFICATION_TYPE":"U","NORAD_CAT_ID":25919,"ELEMENT_SET_NO":999,"REV_AT_EPOCH":42402,"BSTAR":0.00024901,"MEAN_MOTION_DOT":2.801e-5,"MEAN_MOTION_DDOT":0}]
